{
  "type": "FeatureCollection",
  "features": [
    {
      "type": "Feature",
      "properties": {
        "norad_id": 58701,
        "name": "TIANMU-1 16",
        "group": "weather",
        "lat": -32.26845241072424,
        "lon": -2.3094524054798216,
        "alt_km": 495.08892251322686,
        "timestamp": "2025-12-27T15:27:10.786049+00:00",
        "meta_object_name": "TIANMU-1 16",
        "meta_object_id": "2024-004B",
        "meta_epoch": "2025-12-27T06:38:52.382688",
        "meta_mean_motion": 15.24632193,
        "meta_eccentricity": 0.00044864,
        "meta_inclination": 97.4571,
        "meta_ra_of_asc_node": 182.0693,
        "meta_arg_of_pericenter": 229.9673,
        "meta_mean_anomaly": 130.1172,
        "meta_ephemeris_type": 0,
        "meta_classification_type": "U",
        "meta_norad_cat_id": 58701,
        "meta_element_set_no": 999,
        "meta_rev_at_epoch": 10956,
        "meta_bstar": 0.00034578259,
        "meta_mean_motion_dot": 8.466e-05,
        "meta_mean_motion_ddot": 0,
        "tle_line1": "1 58701U 24004B   25361.27699517  .00008466  00000+0  34578-3 0  9997",
        "tle_line2": "2 58701  97.4571 182.0693 0004486 229.9673 130.1172 15.24632193109567"
      },
      "geometry": {
        "type": "Point",
        "coordinates": [
          -2.3094524054798216,
          -32.26845241072424
        ]
      }
    },
    {
      "type": "Feature",
      "properties": {
        "norad_id": 58702,
        "name": "TIANMU-1 17",
        "group": "weather",
        "lat": -59.85792670788605,
        "lon": -164.10493308064983,
        "alt_km": 498.0767715905422,
        "timestamp": "2025-12-27T15:27:10.786060+00:00",
        "meta_object_name": "TIANMU-1 17",
        "meta_object_id": "2024-004C",
        "meta_epoch": "2025-12-27T07:50:36.083328",
        "meta_mean_motion": 15.24675258,
        "meta_eccentricity": 0.00036715,
        "meta_inclination": 97.4605,
        "meta_ra_of_asc_node": 182.5365,
        "meta_arg_of_pericenter": 229.9445,
        "meta_mean_anomaly": 130.1471,
        "meta_ephemeris_type": 0,
        "meta_classification_type": "U",
        "meta_norad_cat_id": 58702,
        "meta_element_set_no": 999,
        "meta_rev_at_epoch": 10956,
        "meta_bstar": 0.00033460566,
        "meta_mean_motion_dot": 8.2e-05,
        "meta_mean_motion_ddot": 0,
        "tle_line1": "1 58702U 24004C   25361.32680652  .00008200  00000+0  33461-3 0  9990",
        "tle_line2": "2 58702  97.4605 182.5365 0003671 229.9445 130.1471 15.24675258109560"
      },
      "geometry": {
        "type": "Point",
        "coordinates": [
          -164.10493308064983,
          -59.85792670788605
        ]
      }
    },
    {
      "type": "Feature",
      "properties": {
        "norad_id": 58703,
        "name": "TIANMU-1 18",
        "group": "weather",
        "lat": 29.6429457475965,
        "lon": 178.77304640581926,
        "alt_km": 492.4486479226016,
        "timestamp": "2025-12-27T15:27:10.786070+00:00",
        "meta_object_name": "TIANMU-1 18",
        "meta_object_id": "2024-004D",
        "meta_epoch": "2025-12-27T07:26:47.213952",
        "meta_mean_motion": 15.24657204,
        "meta_eccentricity": 0.00030678,
        "meta_inclination": 97.4622,
        "meta_ra_of_asc_node": 182.7184,
        "meta_arg_of_pericenter": 226.1069,
        "meta_mean_anomaly": 133.9916,
        "meta_ephemeris_type": 0,
        "meta_classification_type": "U",
        "meta_norad_cat_id": 58703,
        "meta_element_set_no": 999,
        "meta_rev_at_epoch": 10956,
        "meta_bstar": 0.00031593372,
        "meta_mean_motion_dot": 7.733e-05,
        "meta_mean_motion_ddot": 0,
        "tle_line1": "1 58703U 24004D   25361.31026868  .00007733  00000+0  31593-3 0  9997",
        "tle_line2": "2 58703  97.4622 182.7184 0003067 226.1069 133.9916 15.24657204109567"
      },
      "geometry": {
        "type": "Point",
        "coordinates": [
          178.77304640581926,
          29.6429457475965
        ]
      }
    },
    {
      "type": "Feature",
      "properties": {
        "norad_id": 58990,
        "name": "INSAT-3DS",
        "group": "weather",
        "lat": -0.03460262077507892,
        "lon": 50.274797129406316,
        "alt_km": 35790.40827310906,
        "timestamp": "2025-12-27T15:27:10.786081+00:00",
        "meta_object_name": "INSAT-3DS",
        "meta_object_id": "2024-033A",
        "meta_epoch": "2025-12-27T03:07:12.485568",
        "meta_mean_motion": 1.00270739,
        "meta_eccentricity": 0.00013755,
        "meta_inclination": 0.0646,
        "meta_ra_of_asc_node": 98.7441,
        "meta_arg_of_pericenter": 178.0436,
        "meta_mean_anomaly": 307.9854,
        "meta_ephemeris_type": 0,
        "meta_classification_type": "U",
        "meta_norad_cat_id": 58990,
        "meta_element_set_no": 999,
        "meta_rev_at_epoch": 4534,
        "meta_bstar": 0,
        "meta_mean_motion_dot": -1.34e-06,
        "meta_mean_motion_ddot": 0,
        "tle_line1": "1 58990U 24033A   25361.13000562 -.00000134  00000+0  00000+0 0  9994",
        "tle_line2": "2 58990   0.0646  98.7441 0001375 178.0436 307.9854  1.00270739 45348"
      },
      "geometry": {
        "type": "Point",
        "coordinates": [
          50.274797129406316,
          -0.03460262077507892
        ]
      }
    },
    {
      "type": "Feature",
      "properties": {
        "norad_id": 59051,
        "name": "METEOR-M2 4",
        "group": "weather",
        "lat": 46.441477572615284,
        "lon": 147.56368111164747,
        "alt_km": 817.6650522317404,
        "timestamp": "2025-12-27T15:27:10.786094+00:00",
        "meta_object_name": "METEOR-M2 4",
        "meta_object_id": "2024-039A",
        "meta_epoch": "2025-12-27T06:23:21.946272",
        "meta_mean_motion": 14.22403555,
        "meta_eccentricity": 0.00063045,
        "meta_inclination": 98.6787,
        "meta_ra_of_asc_node": 317.9488,
        "meta_arg_of_pericenter": 314.3636,
        "meta_mean_anomaly": 45.7025,
        "meta_ephemeris_type": 0,
        "meta_classification_type": "U",
        "meta_norad_cat_id": 59051,
        "meta_element_set_no": 999,
        "meta_rev_at_epoch": 9482,
        "meta_bstar": 4.3115316e-05,
        "meta_mean_motion_dot": 5.2e-07,
        "meta_mean_motion_ddot": 0,
        "tle_line1": "1 59051U 24039A   25361.26622623  .00000052  00000+0  43115-4 0  9998",
        "tle_line2": "2 59051  98.6787 317.9488 0006304 314.3636  45.7025 14.22403555 94823"
      },
      "geometry": {
        "type": "Point",
        "coordinates": [
          147.56368111164747,
          46.441477572615284
        ]
      }
    },
    {
      "type": "Feature",
      "properties": {
        "norad_id": 60133,
        "name": "GOES 19",
        "group": "weather",
        "lat": -0.0026448067058430767,
        "lon": -107.04724069031894,
        "alt_km": 35784.5821103707,
        "timestamp": "2025-12-27T15:27:10.786106+00:00",
        "meta_object_name": "GOES 19",
        "meta_object_id": "2024-119A",
        "meta_epoch": "2025-12-27T05:45:33.756192",
        "meta_mean_motion": 1.00270004,
        "meta_eccentricity": 0.00011561,
        "meta_inclination": 0.0128,
        "meta_ra_of_asc_node": 247.426,
        "meta_arg_of_pericenter": 71.0215,
        "meta_mean_anomaly": 148.7249,
        "meta_ephemeris_type": 0,
        "meta_classification_type": "U",
        "meta_norad_cat_id": 60133,
        "meta_element_set_no": 999,
        "meta_rev_at_epoch": 524,
        "meta_bstar": 0,
        "meta_mean_motion_dot": -2.26e-06,
        "meta_mean_motion_ddot": 0,
        "tle_line1": "1 60133U 24119A   25361.23997403 -.00000226  00000+0  00000+0 0  9993",
        "tle_line2": "2 60133   0.0128 247.4260 0001156  71.0215 148.7249  1.00270004  5240"
      },
      "geometry": {
        "type": "Point",
        "coordinates": [
          -107.04724069031894,
          -0.0026448067058430767
        ]
      }
    },
    {
      "type": "Feature",
      "properties": {
        "norad_id": 65815,
        "name": "FENGYUN 3H",
        "group": "weather",
        "lat": -56.9732063392806,
        "lon": 107.35274576522602,
        "alt_km": 833.1101756172675,
        "timestamp": "2025-12-27T15:27:10.786117+00:00",
        "meta_object_name": "FENGYUN 3H",
        "meta_object_id": "2025-219A",
        "meta_epoch": "2025-12-27T05:52:47.393472",
        "meta_mean_motion": 14.19908679,
        "meta_eccentricity": 8.841e-05,
        "meta_inclination": 98.6603,
        "meta_ra_of_asc_node": 300.5217,
        "meta_arg_of_pericenter": 109.7825,
        "meta_mean_anomaly": 250.3447,
        "meta_ephemeris_type": 0,
        "meta_classification_type": "U",
        "meta_norad_cat_id": 65815,
        "meta_element_set_no": 999,
        "meta_rev_at_epoch": 1298,
        "meta_bstar": 7.8072487e-05,
        "meta_mean_motion_dot": 1.23e-06,
        "meta_mean_motion_ddot": 0,
        "tle_line1": "1 65815U 25219A   25361.24499298  .00000123  00000+0  78072-4 0  9991",
        "tle_line2": "2 65815  98.6603 300.5217 0000884 109.7825 250.3447 14.19908679 12988"
      },
      "geometry": {
        "type": "Point",
        "coordinates": [
          107.35274576522602,
          -56.9732063392806
        ]
      }
    }
  ]
}